LEMUR-1                 
1 40044U 14033AL  26063.65168094  .00003686  00000+0  43134-3 0  9999
2 40044  97.7705 215.9014 0049799  62.1067 298.5179 14.84768581629955
LEMUR-2-GREENBERG       
1 42837U 17042N   26063.74650144  .00023875  00000+0  88050-3 0  9994
2 42837  97.3764 245.1337 0009423  20.6985 339.4634 15.27748196472426
LEMUR-2-ANDIS           
1 42838U 17042P   26063.45945236  .00036825  00000+0  12540-2 0  9991
2 42838  97.3648 244.7359 0009419  21.6870 338.4768 15.30266268472411
LEMUR-2-MONSON          
1 42839U 17042Q   26063.47476910  .00024927  00000+0  10053-2 0  9999
2 42839  97.4020 244.9729 0006887  10.9279 349.2107 15.24781988472196
LEMUR-2-FURIAUS         
1 42840U 17042R   26063.45368241  .00038202  00000+0  14841-2 0  9996
2 42840  97.3735 243.0645 0007552  75.3754 284.8321 15.25936061472210
LEMUR-2-PETERG          
1 42841U 17042S   26063.44470874  .00031767  00000+0  11148-2 0  9998
2 42841  97.3968 248.6477 0003928   0.2671 359.8571 15.29352670472404
LEMUR-2-DEMBITZ         
1 42842U 17042T   26063.75623722  .00024509  00000+0  93268-3 0  9995
2 42842  97.3795 246.2594 0007217  33.4972 326.6722 15.26721403472393
LEMUR-2-ZACHARY         
1 42845U 17042W   26063.78469851  .00059914  00000+0  14192-2 0  9998
2 42845  97.3650 253.8331 0003761  35.4451 324.7045 15.41555021473074
LEMUR-2-JIN-LUEN        
1 43182U 18014C   26063.27214869  .00304848  00000+0  18719-2 0  9992
2 43182  97.5452 353.0543 0001858 118.1161 242.0292 15.76394994444613
LEMUR-2-KADI            
1 43184U 18014E   26063.29293304  .00129411  00000+0  14120-2 0  9990
2 43184  97.4717 347.6548 0000910  54.9438 305.1905 15.62943807444546
LEMUR-2-AMANDA-SVANTE   
1 48269U 21034B   26063.66933096  .00037277  00000+0  13577-2 0  9998
2 48269  97.5842 139.6631 0002179 220.0259 140.0820 15.28105372265062
LEMUR-2-SPECIAL-K       
1 48273U 21034F   26063.21083409  .00102148  00000+0  21841-2 0  9991
2 48273  97.5727 144.2894 0001470 220.5110 139.6029 15.44439772265399
LEMUR-2-EMBRIONOVIS     
1 56970U 23084AQ  26063.32419909  .00012623  00000+0  37921-3 0  9996
2 56970  97.6121 203.8335 0008579 333.5200  26.5603 15.34531562151581
LEMUR-2-MANO            
1 57390U 23100E   26063.63346696  .00159465  00000+0  19975-2 0  9992
2 57390  99.4552  84.4954 0002247  59.0405 301.1065 15.59217755145690
LEMUR-2-DEVERILL-M-T    
1 57391U 23100F   26063.49921489  .00042726  00000+0  12784-2 0  9998
2 57391  99.4572  72.4828 0008589  43.6000 316.5914 15.34394977145165
LEMUR-2-BASS            
1 58259U 23174D   26063.17060151  .00026335  00000+0  67050-3 0  9993
2 58259  97.3894 146.6834 0007965 181.0527 179.0703 15.39521130129182
