[{"OBJECT_NAME":"LEMUR-1","OBJECT_ID":"2014-033AL","EPOCH":"2026-03-04T15:38:25.233216","MEAN_MOTION":14.84768581,"ECCENTRICITY":0.0049799,"INCLINATION":97.7705,"RA_OF_ASC_NODE":215.9014,"ARG_OF_PERICENTER":62.1067,"MEAN_ANOMALY":298.5179,"EPHEMERIS_TYPE":0,"CLASSIFICATION_TYPE":"U","NORAD_CAT_ID":40044,"ELEMENT_SET_NO":999,"REV_AT_EPOCH":62995,"BSTAR":0.00043134,"MEAN_MOTION_DOT":3.686e-5,"MEAN_MOTION_DDOT":0},{"OBJECT_NAME":"LEMUR-2-GREENBERG","OBJECT_ID":"2017-042N","EPOCH":"2026-03-04T17:54:57.724416","MEAN_MOTION":15.27748196,"ECCENTRICITY":0.0009423,"INCLINATION":97.3764,"RA_OF_ASC_NODE":245.1337,"ARG_OF_PERICENTER":20.6985,"MEAN_ANOMALY":339.4634,"EPHEMERIS_TYPE":0,"CLASSIFICATION_TYPE":"U","NORAD_CAT_ID":42837,"ELEMENT_SET_NO":999,"REV_AT_EPOCH":47242,"BSTAR":0.0008805,"MEAN_MOTION_DOT":0.00023875,"MEAN_MOTION_DDOT":0},{"OBJECT_NAME":"LEMUR-2-ANDIS","OBJECT_ID":"2017-042P","EPOCH":"2026-03-04T11:01:36.683904","MEAN_MOTION":15.30266268,"ECCENTRICITY":0.00094191,"INCLINATION":97.3648,"RA_OF_ASC_NODE":244.7359,"ARG_OF_PERICENTER":21.687,"MEAN_ANOMALY":338.4768,"EPHEMERIS_TYPE":0,"CLASSIFICATION_TYPE":"U","NORAD_CAT_ID":42838,"ELEMENT_SET_NO":999,"REV_AT_EPOCH":47241,"BSTAR":0.0012540031,"MEAN_MOTION_DOT":0.00036825,"MEAN_MOTION_DDOT":0},{"OBJECT_NAME":"LEMUR-2-MONSON","OBJECT_ID":"2017-042Q","EPOCH":"2026-03-04T11:23:40.050240","MEAN_MOTION":15.24781988,"ECCENTRICITY":0.00068878,"INCLINATION":97.402,"RA_OF_ASC_NODE":244.9729,"ARG_OF_PERICENTER":10.9279,"MEAN_ANOMALY":349.2107,"EPHEMERIS_TYPE":0,"CLASSIFICATION_TYPE":"U","NORAD_CAT_ID":42839,"ELEMENT_SET_NO":999,"REV_AT_EPOCH":47219,"BSTAR":0.0010052767,"MEAN_MOTION_DOT":0.00024927,"MEAN_MOTION_DDOT":0},{"OBJECT_NAME":"LEMUR-2-FURIAUS","OBJECT_ID":"2017-042R","EPOCH":"2026-03-04T10:53:18.160224","MEAN_MOTION":15.25936061,"ECCENTRICITY":0.00075526,"INCLINATION":97.3735,"RA_OF_ASC_NODE":243.0645,"ARG_OF_PERICENTER":75.3754,"MEAN_ANOMALY":284.8321,"EPHEMERIS_TYPE":0,"CLASSIFICATION_TYPE":"U","NORAD_CAT_ID":42840,"ELEMENT_SET_NO":999,"REV_AT_EPOCH":47221,"BSTAR":0.0014841348,"MEAN_MOTION_DOT":0.00038202,"MEAN_MOTION_DDOT":0},{"OBJECT_NAME":"LEMUR-2-PETERG","OBJECT_ID":"2017-042S","EPOCH":"2026-03-04T10:40:22.835136","MEAN_MOTION":15.2935267,"ECCENTRICITY":0.00039285,"INCLINATION":97.3968,"RA_OF_ASC_NODE":248.6477,"ARG_OF_PERICENTER":0.2671,"MEAN_ANOMALY":359.8571,"EPHEMERIS_TYPE":0,"CLASSIFICATION_TYPE":"U","NORAD_CAT_ID":42841,"ELEMENT_SET_NO":999,"REV_AT_EPOCH":47240,"BSTAR":0.0011148198,"MEAN_MOTION_DOT":0.00031767,"MEAN_MOTION_DDOT":0},{"OBJECT_NAME":"LEMUR-2-DEMBITZ","OBJECT_ID":"2017-042T","EPOCH":"2026-03-04T18:08:58.895808","MEAN_MOTION":15.26721403,"ECCENTRICITY":0.0007217,"INCLINATION":97.3795,"RA_OF_ASC_NODE":246.2594,"ARG_OF_PERICENTER":33.4972,"MEAN_ANOMALY":326.6722,"EPHEMERIS_TYPE":0,"CLASSIFICATION_TYPE":"U","NORAD_CAT_ID":42842,"ELEMENT_SET_NO":999,"REV_AT_EPOCH":47239,"BSTAR":0.00093268,"MEAN_MOTION_DOT":0.00024509,"MEAN_MOTION_DDOT":0},{"OBJECT_NAME":"LEMUR-2-ZACHARY","OBJECT_ID":"2017-042W","EPOCH":"2026-03-04T18:49:57.951264","MEAN_MOTION":15.41555021,"ECCENTRICITY":0.0003761,"INCLINATION":97.365,"RA_OF_ASC_NODE":253.8331,"ARG_OF_PERICENTER":35.4451,"MEAN_ANOMALY":324.7045,"EPHEMERIS_TYPE":0,"CLASSIFICATION_TYPE":"U","NORAD_CAT_ID":42845,"ELEMENT_SET_NO":999,"REV_AT_EPOCH":47307,"BSTAR":0.0014192,"MEAN_MOTION_DOT":0.00059914,"MEAN_MOTION_DDOT":0},{"OBJECT_NAME":"LEMUR-2-JIN-LUEN","OBJECT_ID":"2018-014C","EPOCH":"2026-03-04T06:31:53.646816","MEAN_MOTION":15.76394994,"ECCENTRICITY":0.00018589,"INCLINATION":97.5452,"RA_OF_ASC_NODE":353.0543,"ARG_OF_PERICENTER":118.1161,"MEAN_ANOMALY":242.0292,"EPHEMERIS_TYPE":0,"CLASSIFICATION_TYPE":"U","NORAD_CAT_ID":43182,"ELEMENT_SET_NO":999,"REV_AT_EPOCH":44461,"BSTAR":0.0018719375,"MEAN_MOTION_DOT":0.00304848,"MEAN_MOTION_DDOT":0},{"OBJECT_NAME":"LEMUR-2-KADI","OBJECT_ID":"2018-014E","EPOCH":"2026-03-04T07:01:49.414656","MEAN_MOTION":15.62943807,"ECCENTRICITY":9.104e-5,"INCLINATION":97.4717,"RA_OF_ASC_NODE":347.6548,"ARG_OF_PERICENTER":54.9438,"MEAN_ANOMALY":305.1905,"EPHEMERIS_TYPE":0,"CLASSIFICATION_TYPE":"U","NORAD_CAT_ID":43184,"ELEMENT_SET_NO":999,"REV_AT_EPOCH":44454,"BSTAR":0.0014120354,"MEAN_MOTION_DOT":0.00129411,"MEAN_MOTION_DDOT":0},{"OBJECT_NAME":"LEMUR-2-AMANDA-SVANTE","OBJECT_ID":"2021-034B","EPOCH":"2026-03-04T16:03:50.194944","MEAN_MOTION":15.28105372,"ECCENTRICITY":0.0002179,"INCLINATION":97.5842,"RA_OF_ASC_NODE":139.6631,"ARG_OF_PERICENTER":220.0259,"MEAN_ANOMALY":140.082,"EPHEMERIS_TYPE":0,"CLASSIFICATION_TYPE":"U","NORAD_CAT_ID":48269,"ELEMENT_SET_NO":999,"REV_AT_EPOCH":26506,"BSTAR":0.0013577,"MEAN_MOTION_DOT":0.00037277,"MEAN_MOTION_DDOT":0},{"OBJECT_NAME":"LEMUR-2-SPECIAL-K","OBJECT_ID":"2021-034F","EPOCH":"2026-03-04T05:03:36.065376","MEAN_MOTION":15.44439772,"ECCENTRICITY":0.00014702,"INCLINATION":97.5727,"RA_OF_ASC_NODE":144.2894,"ARG_OF_PERICENTER":220.511,"MEAN_ANOMALY":139.6029,"EPHEMERIS_TYPE":0,"CLASSIFICATION_TYPE":"U","NORAD_CAT_ID":48273,"ELEMENT_SET_NO":999,"REV_AT_EPOCH":26539,"BSTAR":0.0021841411,"MEAN_MOTION_DOT":0.00102148,"MEAN_MOTION_DDOT":0},{"OBJECT_NAME":"LEMUR-2-EMBRIONOVIS","OBJECT_ID":"2023-084AQ","EPOCH":"2026-03-04T07:46:50.801376","MEAN_MOTION":15.34531562,"ECCENTRICITY":0.00085798,"INCLINATION":97.6121,"RA_OF_ASC_NODE":203.8335,"ARG_OF_PERICENTER":333.52,"MEAN_ANOMALY":26.5603,"EPHEMERIS_TYPE":0,"CLASSIFICATION_TYPE":"U","NORAD_CAT_ID":56970,"ELEMENT_SET_NO":999,"REV_AT_EPOCH":15158,"BSTAR":0.00037921404,"MEAN_MOTION_DOT":0.00012623,"MEAN_MOTION_DDOT":0},{"OBJECT_NAME":"LEMUR-2-MANO","OBJECT_ID":"2023-100E","EPOCH":"2026-03-04T15:12:11.545344","MEAN_MOTION":15.59217755,"ECCENTRICITY":0.0002247,"INCLINATION":99.4552,"RA_OF_ASC_NODE":84.4954,"ARG_OF_PERICENTER":59.0405,"MEAN_ANOMALY":301.1065,"EPHEMERIS_TYPE":0,"CLASSIFICATION_TYPE":"U","NORAD_CAT_ID":57390,"ELEMENT_SET_NO":999,"REV_AT_EPOCH":14569,"BSTAR":0.0019975,"MEAN_MOTION_DOT":0.00159465,"MEAN_MOTION_DDOT":0},{"OBJECT_NAME":"LEMUR-2-DEVERILL-M-T","OBJECT_ID":"2023-100F","EPOCH":"2026-03-04T11:58:52.166496","MEAN_MOTION":15.34394977,"ECCENTRICITY":0.00085894,"INCLINATION":99.4572,"RA_OF_ASC_NODE":72.4828,"ARG_OF_PERICENTER":43.6,"MEAN_ANOMALY":316.5914,"EPHEMERIS_TYPE":0,"CLASSIFICATION_TYPE":"U","NORAD_CAT_ID":57391,"ELEMENT_SET_NO":999,"REV_AT_EPOCH":14516,"BSTAR":0.0012784434,"MEAN_MOTION_DOT":0.00042726,"MEAN_MOTION_DDOT":0},{"OBJECT_NAME":"LEMUR-2-BASS","OBJECT_ID":"2023-174D","EPOCH":"2026-03-04T04:05:39.970464","MEAN_MOTION":15.3952113,"ECCENTRICITY":0.0007965,"INCLINATION":97.3894,"RA_OF_ASC_NODE":146.6834,"ARG_OF_PERICENTER":181.0527,"MEAN_ANOMALY":179.0703,"EPHEMERIS_TYPE":0,"CLASSIFICATION_TYPE":"U","NORAD_CAT_ID":58259,"ELEMENT_SET_NO":999,"REV_AT_EPOCH":12918,"BSTAR":0.00067049574,"MEAN_MOTION_DOT":0.00026335,"MEAN_MOTION_DDOT":0}]
